NORAD_CAT_ID,OBJECT_NAME,OBJECT_TYPE,EPOCH,MEAN_MOTION,ECCENTRICITY,INCLINATION,RA_OF_ASC_NODE,ARG_OF_PERICENTER,MEAN_ANOMALY,BSTAR,MEAN_MOTION_DOT,MEAN_MOTION_DDOT,TLE_LINE0,TLE_LINE1,TLE_LINE2,SEMIMAJOR_AXIS,PERIOD,APOGEE,PERIGEE,DECAYED
51736.0,STARLINK-3447,PAYLOAD,2022-11-30 08:13:25,15.08848772,0.0002677,53.2173,285.2379,33.4649,326.6512,0.00021958,3.209e-05,0.0,0 STARLINK-3447,1 51736U 22016Y   22334.34265777  .00003209  00000-0  21958-3 0  9990,2 51736  53.2173 285.2379 0002677  33.4649 326.6512 15.08848772 43105,6917.854,95.437,541.57,537.867,0.0
51736.0,STARLINK-3447,PAYLOAD,2022-12-01 08:04:13,15.08840939,0.0002568,53.2167,280.7783,29.6087,330.5051,0.00012879,1.762e-05,0.0,0 STARLINK-3447,1 51736U 22016Y   22335.33626168  .00001762  00000-0  12879-3 0  9999,2 51736  53.2167 280.7783 0002568  29.6087 330.5051 15.08840939 43254,6917.878000000002,95.437,541.519,537.966,0.0
51736.0,STARLINK-3447,PAYLOAD,2022-12-01 20:47:17,15.08847878,0.0002653,53.217,278.3984,34.4862,325.6302,0.00022243,3.254e-05,0.0,0 STARLINK-3447,1 51736U 22016Y   22335.86617895  .00003254  00000-0  22243-3 0  9998,2 51736  53.2170 278.3984 0002653  34.4862 325.6302 15.08847878 44461,6917.856,95.437,541.557,537.886,0.0
51736.0,STARLINK-3447,PAYLOAD,2022-12-02 12:41:09,15.08835341,0.0002693,53.2165,275.4243,31.3802,328.735,-8.3232e-05,-1.613e-05,0.0,0 STARLINK-3447,1 51736U 22016Y   22336.52858302 -.00001613  00000-0 -83232-4 0  9997,2 51736  53.2165 275.4243 0002693  31.3802 328.7350 15.08835341 44565,6917.895,95.438,541.623,537.8969999999998,0.0
51736.0,STARLINK-3447,PAYLOAD,2022-12-03 12:31:57,15.08830865,0.0002702,53.2167,270.9653,29.5118,330.6026,-3.1561e-05,-7.91e-06,0.0,0 STARLINK-3447,1 51736U 22016Y   22337.52218918 -.00000791  00000-0 -31561-4 0  9995,2 51736  53.2167 270.9653 0002702  29.5118 330.6026 15.08830865 43581,6917.908,95.438,541.643,537.904,0.0
51736.0,STARLINK-3447,PAYLOAD,2022-12-04 04:25:48,15.0884227,0.0002631,53.2167,267.9909,30.2948,329.8196,0.00022514,3.297e-05,0.0,0 STARLINK-3447,1 51736U 22016Y   22338.18458605  .00003297  00000-0  22514-3 0  9996,2 51736  53.2167 267.9909 0002631  30.2948 329.8196 15.08842270 44810,6917.873000000001,95.437,541.559,537.918,0.0
51736.0,STARLINK-3447,PAYLOAD,2022-12-04 12:22:44,15.08839257,0.0002588,53.2166,266.5042,29.597,330.5168,0.00014773,2.064e-05,0.0,0 STARLINK-3447,1 51736U 22016Y   22338.51578801  .00002064  00000-0  14773-3 0  9993,2 51736  53.2166 266.5042 0002588  29.5970 330.5168 15.08839257 43738,6917.8830000000025,95.438,541.538,537.957,0.0
51736.0,STARLINK-3447,PAYLOAD,2022-12-05 12:13:31,15.08845441,0.0002752,53.2163,262.0422,33.5833,326.5333,0.00023203,3.407e-05,0.0,0 STARLINK-3447,1 51736U 22016Y   22339.50938698  .00003407  00000-0  23203-3 0  9997,2 51736  53.2163 262.0422 0002752  33.5833 326.5333 15.08845441 45018,6917.864000000001,95.437,541.633,537.825,0.0
51736.0,STARLINK-3447,PAYLOAD,2022-12-05 18:35:03,15.08849544,0.0002788,53.2178,260.8519,34.7036,325.4137,0.00027348,4.068e-05,0.0,0 STARLINK-3447,1 51736U 22016Y   22339.77434563  .00004068  00000-0  27348-3 0  9996,2 51736  53.2178 260.8519 0002788  34.7036 325.4137 15.08849544 43920,6917.851,95.437,541.645,537.788,0.0
51736.0,STARLINK-3447,PAYLOAD,2022-12-06 04:07:21,15.08859687,0.0002715,53.2165,259.0709,31.0294,329.0858,0.00050641,7.785e-05,0.0,0 STARLINK-3447,1 51736U 22016Y   22340.17177752  .00007785  00000-0  50641-3 0  9997,2 51736  53.2165 259.0709 0002715  31.0294 329.0858 15.08859687 45115,6917.82,95.436,541.563,537.807,0.0
51736.0,STARLINK-3447,PAYLOAD,2022-12-06 12:04:17,15.08851535,0.0003413999999999,53.2177,257.5837,31.2315,328.8879,0.00021008,3.058e-05,0.0,0 STARLINK-3447,1 51736U 22016Y   22340.50298016  .00003058  00000-0  21008-3 0  9995,2 51736  53.2177 257.5837 0003414  31.2315 328.8879 15.08851535 45165,6917.845,95.437,542.072,537.3480000000002,0.0
51736.0,STARLINK-3447,PAYLOAD,2022-12-06 21:36:36,15.08828518,0.0002486,53.2162,255.7973,36.5522,323.564,-0.00028513,-4.822e-05,0.0,0 STARLINK-3447,1 51736U 22016Y   22340.90042697 -.00004822  00000-0 -28513-3 0  9991,2 51736  53.2162 255.7973 0002486  36.5522 323.5640 15.08828518 45226,6917.915,95.438,541.5,538.061,0.0
51736.0,STARLINK-3447,PAYLOAD,2022-12-07 18:16:37,15.08844872,0.0002713,53.2169,251.9339,30.0469,330.0679,0.00026895,3.995e-05,0.0,0 STARLINK-3447,1 51736U 22016Y   22341.76154954  .00003995  00000-0  26895-3 0  9995,2 51736  53.2169 251.9339 0002713  30.0469 330.0679 15.08844872 44224,6917.865,95.437,541.607,537.854,0.0
51736.0,STARLINK-3447,PAYLOAD,2022-12-07 21:27:24,15.0885531,0.0002672,53.2169,251.3393,30.0934,330.0212,0.00071417,0.00011101,0.0,0 STARLINK-3447,1 51736U 22016Y   22341.89402836  .00011101  00000-0  71417-3 0  9992,2 51736  53.2169 251.3393 0002672  30.0934 330.0212 15.08855310 45378,6917.834,95.437,541.547,537.85,0.0
51736.0,STARLINK-3447,PAYLOAD,2022-12-08 03:48:56,15.08849317,0.0002376,53.2166,250.1507,22.4605,337.649,0.00086368,0.00013488,0.0,0 STARLINK-3447,1 51736U 22016Y   22342.15898971  .00013488  00000-0  86368-3 0  9992,2 51736  53.2166 250.1507 0002376  22.4605 337.6490 15.08849317 45416,6917.852,95.437,541.361,538.073,0.0
51736.0,STARLINK-3447,PAYLOAD,2022-12-08 05:24:19,15.08851581,0.0002703,53.2169,249.8522,29.0528,331.0614,0.00081245,0.0001267,0.0,0 STARLINK-3447,1 51736U 22016Y   22342.22523121  .00012670  00000-0  81245-3 0  9993,2 51736  53.2169 249.8522 0002703  29.0528 331.0614 15.08851581 44299,6917.845,95.437,541.58,537.84,0.0
51736.0,STARLINK-3447,PAYLOAD,2022-12-09 00:28:56,15.08844344,0.0002631999999999,53.2171,246.2849,25.9518,334.1606,-0.00021949,-3.781e-05,0.0,0 STARLINK-3447,1 51736U 22016Y   22343.02010261 -.00003781  00000-0 -21949-3 0  9998,2 51736  53.2171 246.2849 0002632  25.9518 334.1606 15.08844344 45543,6917.8669999999975,95.437,541.553,537.911,0.0
51736.0,STARLINK-3447,PAYLOAD,2022-12-09 03:39:42,15.08853087,0.0002674,53.2168,245.6897,28.7968,331.3171,0.00022975,3.371e-05,0.0,0 STARLINK-3447,1 51736U 22016Y   22343.15258031  .00003371  00000-0  22975-3 0  9994,2 51736  53.2168 245.6897 0002674  28.7968 331.3171 15.08853087 45563,6917.84,95.437,541.555,537.856,0.0
51736.0,STARLINK-3447,PAYLOAD,2022-12-09 21:08:57,15.08841632,0.0002648999999999,53.2165,242.4189,25.969,334.1435,0.00013659,1.886e-05,0.0,0 STARLINK-3447,1 51736U 22016Y   22343.88122483  .00001886  00000-0  13659-3 0  9993,2 51736  53.2165 242.4189 0002649  25.9690 334.1435 15.08841632 45671,6917.875,95.437,541.573,537.908,0.0
51736.0,STARLINK-3447,PAYLOAD,2022-12-10 00:19:44,15.08845665,0.0002631999999999,53.2166,241.8241,26.7371,333.3757,0.00018707,2.691e-05,0.0,0 STARLINK-3447,1 51736U 22016Y   22344.01370388  .00002691  00000-0  18707-3 0  9992,2 51736  53.2166 241.8241 0002632  26.7371 333.3757 15.08845665 44566,6917.863,95.437,541.549,537.9069999999998,0.0
51736.0,STARLINK-3447,PAYLOAD,2022-12-10 20:59:45,15.08839166,0.0002378,53.2168,237.9587,28.1665,331.9455,0.000208,3.024e-05,0.0,0 STARLINK-3447,1 51736U 22016Y   22344.87482829  .00003024  00000-0  20800-3 0  9998,2 51736  53.2168 237.9587 0002378  28.1665 331.9455 15.08839166 45824,6917.8830000000025,95.438,541.393,538.1030000000002,0.0
51736.0,STARLINK-3447,PAYLOAD,2022-12-11 03:21:17,15.08834935,0.0002717,53.2168,236.769,27.7439,332.3698,0.00013415,1.847e-05,0.0,0 STARLINK-3447,1 51736U 22016Y   22345.13979142  .00001847  00000-0  13415-3 0  9992,2 51736  53.2168 236.7690 0002717  27.7439 332.3698 15.08834935 44739,6917.896,95.438,541.64,537.881,0.0
51736.0,STARLINK-3447,PAYLOAD,2022-12-11 20:50:32,15.08836282,0.0002602,53.2162,233.498,26.477,333.6354,0.00014225,1.976e-05,0.0,0 STARLINK-3447,1 51736U 22016Y   22345.86843377  .00001976  00000-0  14225-3 0  9995,2 51736  53.2162 233.4980 0002602  26.4770 333.6354 15.08836282 44848,6917.892,95.438,541.557,537.957,0.0
51736.0,STARLINK-3447,PAYLOAD,2022-12-12 01:36:42,15.088383800000004,0.0002621,53.2157,232.6064,25.9041,334.2082,0.00015266,2.142e-05,0.0,0 STARLINK-3447,1 51736U 22016Y   22346.06715357  .00002142  00000-0  15266-3 0  9996,2 51736  53.2157 232.6064 0002621  25.9041 334.2082 15.08838380 44871,6917.885,95.438,541.564,537.937,0.0
51736.0,STARLINK-3447,PAYLOAD,2022-12-13 01:27:29,15.08841866,0.0002721,53.216,228.1453,27.9379,332.1759,0.00020064,2.906e-05,0.0,0 STARLINK-3447,1 51736U 22016Y   22347.06075472  .00002906  00000-0  20064-3 0  9994,2 51736  53.2160 228.1453 0002721  27.9379 332.1759 15.08841866 46158,6917.875,95.437,541.622,537.857,0.0
51736.0,STARLINK-3447,PAYLOAD,2022-12-13 09:24:24,15.08840909,0.0002756,53.2158,226.6586,28.726,331.3883,0.00015076,2.112e-05,0.0,0 STARLINK-3447,1 51736U 22016Y   22347.39195566  .00002112  00000-0  15076-3 0  9993,2 51736  53.2158 226.6586 0002756  28.7260 331.3883 15.08840909 45077,6917.878000000002,95.437,541.649,537.836,0.0
51736.0,STARLINK-3447,PAYLOAD,2022-12-13 15:45:57,15.08839257,0.0002791,53.2155,225.4693,30.1516,329.9637,9.8701e-05,1.283e-05,0.0,0 STARLINK-3447,1 51736U 22016Y   22347.65691657  .00001283  00000-0  98701-4 0  9999,2 51736  53.2155 225.4693 0002791  30.1516 329.9637 15.08839257 45119,6917.8830000000025,95.438,541.678,537.817,0.0
51736.0,STARLINK-3447,PAYLOAD,2022-12-14 09:15:12,15.08842118,0.0002835,53.2152,222.1984,30.8083,329.3075,0.00013252,1.821e-05,0.0,0 STARLINK-3447,1 51736U 22016Y   22348.38555604  .00001821  00000-0  13252-3 0  9996,2 51736  53.2152 222.1984 0002835  30.8083 329.3075 15.08842118 46355,6917.874,95.437,541.7,537.778,0.0
51736.0,STARLINK-3447,PAYLOAD,2022-12-14 20:22:54,15.08839303,0.0002817,53.2157,220.1173,30.114,330.0014,9.8344e-05,1.277e-05,0.0,0 STARLINK-3447,1 51736U 22016Y   22348.84923732  .00001277  00000-0  98344-4 0  9999,2 51736  53.2157 220.1173 0002817  30.1140 330.0014 15.08839303 45291,6917.8830000000025,95.438,541.696,537.799,0.0
